LEMUR-2-CHANUSIAK       
1 43697U 18088H   19198.06193532  .00001207  00000-0  52299-4 0  9992
2 43697  85.0396 299.5262 0018531  84.9003 275.4353 15.21075687 37684
LEMUR-2-ORZULAK         
1 43731U 18096N   19198.23806776  .00001217  00000-0  47937-4 0  9994
2 43731  97.4598 268.4283 0019601 231.8389 128.1085 15.27435337 35100
LEMUR-2-KOBYSZCZE       
1 43732U 18096P   19198.41763131  .00001465  00000-0  56807-4 0  9993
2 43732  97.4602 268.6525 0019674 231.6910 128.2560 15.27626140 35132
LEMUR-2-DULY            
1 43745U 18096AC  19197.90229227  .00001598  00000-0  61804-4 0  9993
2 43745  97.4597 268.1096 0019496 233.3610 126.5837 15.27576141 35060
LEMUR-2-VLADIMIR        
1 43746U 18096AD  19197.88778141  .00001631  00000-0  62789-4 0  9996
2 43746  97.4596 268.1239 0019572 233.7610 126.1820 15.27694317 35084
LEMUR-2-CHRISTINAHOLT   
1 43882U 18111G   19198.48627462  .00000711  00000-0  67596-4 0  9990
2 43882  97.7182 106.2790 0010212 292.0771  67.9365 14.96551512 28252
LEMUR-2-TINYKEV         
1 43883U 18111H   19197.81052868  .00000356  00000-0  36374-4 0  9994
2 43883  97.7183 105.6360 0010503 294.1589  65.8533 14.96613466 28153
LEMUR-2-REMY-COLTON     
1 43884U 18111J   19198.14348531  .00000404  00000-0  40551-4 0  9993
2 43884  97.7187 105.9760 0010229 293.2480  66.7665 14.96613823 28209
LEMUR-2-GUSTAVO         
1 43885U 18111K   19198.00242855  .00000110  00000-0  14716-4 0  9999
2 43885  97.7187 105.8591 0010334 292.3431  67.6695 14.96644388 28184
LEMUR-2-ZO              
1 43886U 18111L   19198.05836897 -.00000220  00000-0 -14147-4 0  9992
2 43886  97.7196 105.9513 0010212 292.2816  67.7322 14.96729831 28197
LEMUR-2-NATALIEMURRAY   
1 43887U 18111M   19197.97685444  .00000267  00000-0  28326-4 0  9996
2 43887  97.7202 105.9038 0010015 292.1878  67.8281 14.96850428 30180
LEMUR-2-SARAHBETTYBOO   
1 43888U 18111N   19198.16912895  .00000690  00000-0  65170-4 0  9990
2 43888  97.7208 106.1310 0009845 289.7487  70.2672 14.96907905 30219
LEMUR-2-DAISY-HARPER    
1 43889U 18111P   19198.29482724  .00000865  00000-0  80248-4 0  9995
2 43889  97.7205 106.2712 0009784 288.4643  71.5515 14.96975942 30223
LEMUR-2-JOHANLORAN      
1 44084U 19018G   19197.87647648  .00001406  00000-0  65099-4 0  9990
2 44084  97.4551 257.4839 0011888 268.4465  91.5409 15.21740787 16201
LEMUR-2-BEAUDACIOUS     
1 44085U 19018H   19197.94010829  .00001278  00000-0  59396-4 0  9994
2 44085  97.4551 257.5529 0011871 268.9793  91.0083 15.21763726 16212
LEMUR-2-ELHAM           
1 44086U 19018J   19197.93672991  .00001508  00000-0  69374-4 0  9991
2 44086  97.4555 257.5623 0011990 269.6451  90.3411 15.21842473 16217
LEMUR-2-VICTOR-ANDREW   
1 44087U 19018K   19197.60448818  .00001524  00000-0  69993-4 0  9990
2 44087  97.4555 257.2401 0011865 271.9581  88.0296 15.21876203 16167
LEMUR-2-LILLYJO         
1 44396U 19038L   19198.54508009  .00001360  00000-0  82916-4 0  9996
2 44396  97.4871 160.2585 0024136 201.4270 158.6095 15.11800215  1811
LEMUR-2-WANLI           
1 44402U 19038S   19198.14837280  .00000494  00000-0  32619-4 0  9998
2 44402  97.4885 159.8728 0024270 202.1872 157.8310 15.11738809  1766
LEMUR-2-MORAG           
1 44403U 19038T   19198.47931770  .00000783  00000-0  49498-4 0  9998
2 44403  97.4916 160.1916 0023021 204.3105 155.7041 15.11741737  1810
LEMUR-2-YNDRD           
1 44404U 19038U   19198.14776633  .00000360  00000-0  24746-4 0  9998
2 44404  97.4904 159.8714 0021730 207.0688 152.9411 15.11812496  1765
LEMUR-2-DUSTINTHEWIND   
1 44406U 19038W   19198.34637285  .00000175  00000-0  13978-4 0  9990
2 44406  97.4905 160.0660 0024230 199.9526 160.0760 15.11806183  1785
LEMUR-2-ALEX-MADDY      
1 44407U 19038X   19197.88337588  .00000414  00000-0  27944-4 0  9996
2 44407  97.4910 159.6062 0022943 206.7668 153.2380 15.11766829  1712
LEMUR-2-EJATTA          
1 44409U 19038Z   19198.41184770  .00000800  00000-0  50224-4 0  9997
2 44409  97.4868 160.1307 0024053 200.5394 159.4871 15.11904496  1804
LEMUR-2-GREGROBINSON    
1 44411U 19038AB  19198.41368865  .00000493  00000-0  32630-4 0  9998
2 44411  97.4923 160.1269 0023089 205.1717 154.8389 15.11668285  1473
